{"type": "FeatureCollection", "features": [ {"type": "Feature", "properties": {"norad_id": 30295, "name": "FENGYUN 1C DEB", "group": "fengyun-1c-debris", "lat": 25.95289258915318, "lon": 11.996945075996264, "alt_km": 751.8039206300709, "timestamp": "2025-12-19T22:41:52.667295+00:00", "meta": {"OBJECT_NAME": "FENGYUN 1C DEB", "OBJECT_ID": "1999-025ZG", "EPOCH": "2025-12-19T07:28:53.427936", "MEAN_MOTION": 14.25049146, "ECCENTRICITY": 0.0094375, "INCLINATION": 98.5076, "RA_OF_ASC_NODE": 15.5601, "ARG_OF_PERICENTER": 63.495, "MEAN_ANOMALY": 312.7141, "EPHEMERIS_TYPE": 0, "CLASSIFICATION_TYPE": "U", "NORAD_CAT_ID": 30295, "ELEMENT_SET_NO": 999, "REV_AT_EPOCH": 98270, "BSTAR": 0.00012634, "MEAN_MOTION_DOT": 2.68e-06, "MEAN_MOTION_DDOT": 0}, "tle": {"line1": "1 30295U 99025ZG  25353.31172949  .00000268  00000+0  12634-3 0  9992", "line2": "2 30295  98.5076  15.5601 0094375  63.4950 312.7141 14.25049146982700"}}, "geometry": {"type": "Point", "coordinates": [11.996945075996264, 25.95289258915318]}}, {"type": "Feature", "properties": {"norad_id": 30297, "name": "FENGYUN 1C DEB", "group": "fengyun-1c-debris", "lat": -65.11224298804133, "lon": 105.97441407985666, "alt_km": 1064.646400221718, "timestamp": "2025-12-19T22:41:52.667305+00:00", "meta": {"OBJECT_NAME": "FENGYUN 1C DEB", "OBJECT_ID": "1999-025ZJ", "EPOCH": "2025-12-19T10:18:15.647328", "MEAN_MOTION": 14.21865016, "ECCENTRICITY": 0.0379768, "INCLINATION": 98.8123, "RA_OF_ASC_NODE": 304.9921, "ARG_OF_PERICENTER": 96.3221, "MEAN_ANOMALY": 26.3285, "EPHEMERIS_TYPE": 0, "CLASSIFICATION_TYPE": "U", "NORAD_CAT_ID": 30297, "ELEMENT_SET_NO": 999, "REV_AT_EPOCH": 95247, "BSTAR": 0.00088873, "MEAN_MOTION_DOT": 4.06e-05, "MEAN_MOTION_DDOT": 0}, "tle": {"line1": "1 30297U 99025ZJ  25353.42934777  .00004060  00000+0  88873-3 0  9993", "line2": "2 30297  98.8123 304.9921 0379768  96.3221  26.3285 14.21865016952472"}}, "geometry": {"type": "Point", "coordinates": [105.97441407985666, -65.11224298804133]}}, {"type": "Feature", "properties": {"norad_id": 30298, "name": "FENGYUN 1C DEB", "group": "fengyun-1c-debris", "lat": -76.62526006501993, "lon": -136.8070790935607, "alt_km": 863.1760758427508, "timestamp": "2025-12-19T22:41:52.667315+00:00", "meta": {"OBJECT_NAME": "FENGYUN 1C DEB", "OBJECT_ID": "1999-025ZK", "EPOCH": "2025-12-19T04:52:12.872064", "MEAN_MOTION": 14.19984193, "ECCENTRICITY": 0.004792, "INCLINATION": 99.0021, "RA_OF_ASC_NODE": 84.2515, "ARG_OF_PERICENTER": 110.0314, "MEAN_ANOMALY": 314.6141, "EPHEMERIS_TYPE": 0, "CLASSIFICATION_TYPE": "U", "NORAD_CAT_ID": 30298, "ELEMENT_SET_NO": 999, "REV_AT_EPOCH": 96926, "BSTAR": 0.0013598, "MEAN_MOTION_DOT": 2.88e-05, "MEAN_MOTION_DDOT": 0}, "tle": {"line1": "1 30298U 99025ZK  25353.20292676  .00002880  00000+0  13598-2 0  9994", "line2": "2 30298  99.0021  84.2515 0047920 110.0314 314.6141 14.19984193969263"}}, "geometry": {"type": "Point", "coordinates": [-136.8070790935607, -76.62526006501993]}}, {"type": "Feature", "properties": {"norad_id": 30299, "name": "FENGYUN 1C DEB", "group": "fengyun-1c-debris", "lat": 16.305934826457374, "lon": -111.08769331553003, "alt_km": 942.0093466365761, "timestamp": "2025-12-19T22:41:52.667325+00:00", "meta": {"OBJECT_NAME": "FENGYUN 1C DEB", "OBJECT_ID": "1999-025ZL", "EPOCH": "2025-12-19T03:18:11.577600", "MEAN_MOTION": 14.07778648, "ECCENTRICITY": 0.01030752, "INCLINATION": 99.0941, "RA_OF_ASC_NODE": 65.4131, "ARG_OF_PERICENTER": 349.7633, "MEAN_ANOMALY": 40.2465, "EPHEMERIS_TYPE": 0, "CLASSIFICATION_TYPE": "U", "NORAD_CAT_ID": 30299, "ELEMENT_SET_NO": 999, "REV_AT_EPOCH": 96380, "BSTAR": 0.0012628579, "MEAN_MOTION_DOT": 2.2e-05, "MEAN_MOTION_DDOT": 0}, "tle": {"line1": "1 30299U 99025ZL  25353.13763400  .00002200  00000+0  12629-2 0  9995", "line2": "2 30299  99.0941  65.4131 0103075 349.7633  40.2465 14.07778648963807"}}, "geometry": {"type": "Point", "coordinates": [-111.08769331553003, 16.305934826457374]}}, {"type": "Feature", "properties": {"norad_id": 30300, "name": "FENGYUN 1C DEB", "group": "fengyun-1c-debris", "lat": 67.41816866801388, "lon": -93.96815256206467, "alt_km": 847.2145194394234, "timestamp": "2025-12-19T22:41:52.667336+00:00", "meta": {"OBJECT_NAME": "FENGYUN 1C DEB", "OBJECT_ID": "1999-025ZM", "EPOCH": "2025-12-19T03:48:05.188896", "MEAN_MOTION": 14.26899681, "ECCENTRICITY": 0.00756002, "INCLINATION": 99.0404, "RA_OF_ASC_NODE": 62.7103, "ARG_OF_PERICENTER": 275.4697, "MEAN_ANOMALY": 113.2793, "EPHEMERIS_TYPE": 0, "CLASSIFICATION_TYPE": "U", "NORAD_CAT_ID": 30300, "ELEMENT_SET_NO": 999, "REV_AT_EPOCH": 97076, "BSTAR": 0.0016293339, "MEAN_MOTION_DOT": 4.032e-05, "MEAN_MOTION_DDOT": 0}, "tle": {"line1": "1 30300U 99025ZM  25353.15839339  .00004032  00000+0  16293-2 0  9991", "line2": "2 30300  99.0404  62.7103 0075600 275.4697 113.2793 14.26899681970760"}}, "geometry": {"type": "Point", "coordinates": [-93.96815256206467, 67.41816866801388]}}, {"type": "Feature", "properties": {"norad_id": 30301, "name": "FENGYUN 1C DEB", "group": "fengyun-1c-debris", "lat": -48.49531455810572, "lon": -44.60646498851676, "alt_km": 683.4849311881526, "timestamp": "2025-12-19T22:41:52.667346+00:00", "meta": {"OBJECT_NAME": "FENGYUN 1C DEB", "OBJECT_ID": "1999-025ZN", "EPOCH": "2025-12-19T15:39:00.595008", "MEAN_MOTION": 14.5320034, "ECCENTRICITY": 0.00692, "INCLINATION": 98.6346, "RA_OF_ASC_NODE": 144.9792, "ARG_OF_PERICENTER": 268.5803, "MEAN_ANOMALY": 225.6832, "EPHEMERIS_TYPE": 0, "CLASSIFICATION_TYPE": "U", "NORAD_CAT_ID": 30301, "ELEMENT_SET_NO": 999, "REV_AT_EPOCH": 97317, "BSTAR": 0.0027329, "MEAN_MOTION_DOT": 0.00011654, "MEAN_MOTION_DDOT": 0}, "tle": {"line1": "1 30301U 99025ZN  25353.65209022  .00011654  00000+0  27329-2 0  9997", "line2": "2 30301  98.6346 144.9792 0069200 268.5803 225.6832 14.53200340973177"}}, "geometry": {"type": "Point", "coordinates": [-44.60646498851676, -48.49531455810572]}}, {"type": "Feature", "properties": {"norad_id": 30302, "name": "FENGYUN 1C DEB", "group": "fengyun-1c-debris", "lat": 11.157863150687309, "lon": -100.37697599353852, "alt_km": 844.2290721322306, "timestamp": "2025-12-19T22:41:52.667356+00:00", "meta": {"OBJECT_NAME": "FENGYUN 1C DEB", "OBJECT_ID": "1999-025ZP", "EPOCH": "2025-12-18T05:51:11.231136", "MEAN_MOTION": 14.1284744, "ECCENTRICITY": 0.0105226, "INCLINATION": 98.554, "RA_OF_ASC_NODE": 259.6981, "ARG_OF_PERICENTER": 101.7934, "MEAN_ANOMALY": 259.5065, "EPHEMERIS_TYPE": 0, "CLASSIFICATION_TYPE": "U", "NORAD_CAT_ID": 30302, "ELEMENT_SET_NO": 999, "REV_AT_EPOCH": 96121, "BSTAR": 0.0018248401, "MEAN_MOTION_DOT": 3.537e-05, "MEAN_MOTION_DDOT": 0}, "tle": {"line1": "1 30302U 99025ZP  25352.24387999  .00003537  00000+0  18248-2 0  9993", "line2": "2 30302  98.5540 259.6981 0105226 101.7934 259.5065 14.12847440961218"}}, "geometry": {"type": "Point", "coordinates": [-100.37697599353852, 11.157863150687309]}}, {"type": "Feature", "properties": {"norad_id": 30303, "name": "FENGYUN 1C DEB", "group": "fengyun-1c-debris", "lat": -63.20728706880373, "lon": 89.79408164879224, "alt_km": 766.4983620226458, "timestamp": "2025-12-19T22:41:52.667367+00:00", "meta": {"OBJECT_NAME": "FENGYUN 1C DEB", "OBJECT_ID": "1999-025ZQ", "EPOCH": "2025-12-19T04:28:26.075424", "MEAN_MOTION": 14.25895485, "ECCENTRICITY": 0.00769653, "INCLINATION": 99.0208, "RA_OF_ASC_NODE": 70.677, "ARG_OF_PERICENTER": 263.8432, "MEAN_ANOMALY": 95.3974, "EPHEMERIS_TYPE": 0, "CLASSIFICATION_TYPE": "U", "NORAD_CAT_ID": 30303, "ELEMENT_SET_NO": 999, "REV_AT_EPOCH": 97127, "BSTAR": 0.0017896087, "MEAN_MOTION_DOT": 4.351e-05, "MEAN_MOTION_DDOT": 0}, "tle": {"line1": "1 30303U 99025ZQ  25353.18641291  .00004351  00000+0  17896-2 0  9999", "line2": "2 30303  99.0208  70.6770 0076965 263.8432  95.3974 14.25895485971271"}}, "geometry": {"type": "Point", "coordinates": [89.79408164879224, -63.20728706880373]}}, {"type": "Feature", "properties": {"norad_id": 30304, "name": "FENGYUN 1C DEB", "group": "fengyun-1c-debris", "lat": -4.665491020142596, "lon": -114.27369241414837, "alt_km": 892.4010222686838, "timestamp": "2025-12-19T22:41:52.667376+00:00", "meta": {"OBJECT_NAME": "FENGYUN 1C DEB", "OBJECT_ID": "1999-025ZR", "EPOCH": "2025-12-18T10:12:26.700192", "MEAN_MOTION": 14.15523113, "ECCENTRICITY": 0.00734007, "INCLINATION": 99.0328, "RA_OF_ASC_NODE": 64.9301, "ARG_OF_PERICENTER": 32.7527, "MEAN_ANOMALY": 327.8165, "EPHEMERIS_TYPE": 0, "CLASSIFICATION_TYPE": "U", "NORAD_CAT_ID": 30304, "ELEMENT_SET_NO": 999, "REV_AT_EPOCH": 96899, "BSTAR": 0.0011981926, "MEAN_MOTION_DOT": 2.359e-05, "MEAN_MOTION_DDOT": 0}, "tle": {"line1": "1 30304U 99025ZR  25352.42530903  .00002359  00000+0  11982-2 0  9999", "line2": "2 30304  99.0328  64.9301 0073400  32.7527 327.8165 14.15523113968995"}}, "geometry": {"type": "Point", "coordinates": [-114.27369241414837, -4.665491020142596]}}, {"type": "Feature", "properties": {"norad_id": 30305, "name": "FENGYUN 1C DEB", "group": "fengyun-1c-debris", "lat": -77.47824268503079, "lon": -24.052374972069927, "alt_km": 1230.310968680482, "timestamp": "2025-12-19T22:41:52.667387+00:00", "meta": {"OBJECT_NAME": "FENGYUN 1C DEB", "OBJECT_ID": "1999-025ZS", "EPOCH": "2025-12-19T15:06:37.577376", "MEAN_MOTION": 13.6023379, "ECCENTRICITY": 0.0265838, "INCLINATION": 98.5882, "RA_OF_ASC_NODE": 292.7934, "ARG_OF_PERICENTER": 83.1006, "MEAN_ANOMALY": 89.67, "EPHEMERIS_TYPE": 0, "CLASSIFICATION_TYPE": "U", "NORAD_CAT_ID": 30305, "ELEMENT_SET_NO": 999, "REV_AT_EPOCH": 93867, "BSTAR": 0.00025531, "MEAN_MOTION_DOT": 2.07e-06, "MEAN_MOTION_DDOT": 0}, "tle": {"line1": "1 30305U 99025ZS  25353.62960159  .00000207  00000+0  25531-3 0  9999", "line2": "2 30305  98.5882 292.7934 0265838  83.1006  89.6700 13.60233790938676"}}, "geometry": {"type": "Point", "coordinates": [-24.052374972069927, -77.47824268503079]}}]}